[{"OBJECT_NAME":"STARLINK-4734","OBJECT_ID":"2022-111T","EPOCH":"2026-03-09T20:39:07.514496","MEAN_MOTION":15.08843891,"ECCENTRICITY":0.0001189,"INCLINATION":53.2168,"RA_OF_ASC_NODE":273.2353,"ARG_OF_PERICENTER":89.4809,"MEAN_ANOMALY":270.632,"EPHEMERIS_TYPE":0,"CLASSIFICATION_TYPE":"U","NORAD_CAT_ID":53790,"ELEMENT_SET_NO":999,"REV_AT_EPOCH":19372,"BSTAR":3.8968415e-5,"MEAN_MOTION_DOT":3.32e-6,"MEAN_MOTION_DDOT":0},{"OBJECT_NAME":"FENGYUN 1C DEB","OBJECT_ID":"1999-025BFB","EPOCH":"2026-03-07T22:39:13.230432","MEAN_MOTION":14.80895829,"ECCENTRICITY":0.01343541,"INCLINATION":99.2432,"RA_OF_ASC_NODE":124.2719,"ARG_OF_PERICENTER":346.3958,"MEAN_ANOMALY":13.3642,"EPHEMERIS_TYPE":0,"CLASSIFICATION_TYPE":"U","NORAD_CAT_ID":31057,"ELEMENT_SET_NO":999,"REV_AT_EPOCH":63213,"BSTAR":0.0011769904,"MEAN_MOTION_DOT":0.0001056,"MEAN_MOTION_DDOT":0}]
